FENGYUN 1C DEB          
1 32332U 99025CXZ 25008.88597443  .00003483  00000+0  18272-2 0  9990
2 32332  99.1607  64.7677 0294156 157.9713 203.4400 13.94940997884248
FENGYUN 1C DEB          
1 32334U 99025CYB 25013.40822515  .00001161  00000+0  78965-3 0  9994
2 32334  99.2942  62.6048 0065169 113.6988 247.1031 14.01078748892716
FENGYUN 1C DEB          
1 32340U 99025CYH 25018.64890492  .00020679  00000+0  40910-2 0  9994
2 32340  98.9727 352.5443 0042046 225.1833 134.5945 14.61791832923818
FENGYUN 1C DEB          
1 32342U 99025CYK 25018.80216772  .00000319  00000+0  19330-3 0  9999
2 32342  98.6818  37.3279 0007514 191.1856 343.0992 14.13214491890855
FENGYUN 1C DEB          
1 32343U 99025CYL 25017.68892815  .00002117  00000+0  92030-3 0  9999
2 32343  98.5844  13.9364 0153224 359.0355   1.0504 14.19013078600457
FENGYUN 1C DEB          
1 32350U 99025CYT 25017.87273271  .00010217  00000+0  16603-2 0  9998
2 32350  98.2732  68.6317 0281053 228.6915 128.9779 14.48314872927596
FENGYUN 1C DEB          
1 32352U 99025CYV 25018.48905633  .00001919  00000+0  56559-3 0  9996
2 32352  98.7829 289.8331 0125208  68.4187 293.0288 14.40365989918971
FENGYUN 1C DEB          
1 32353U 99025CYW 25013.23026393  .00004261  00000+0  27197-2 0  9990
2 32353  98.9155 196.7516 0126311  45.5731 315.5688 14.00198914585202
FENGYUN 1C DEB          
1 32355U 99025CYY 25017.27698116  .00040748  00000+0  60452-2 0  9999
2 32355 100.3795 201.3963 0074701 350.0508 184.5235 14.73005081600709
FENGYUN 1C DEB          
1 32356U 99025CYZ 25018.74441873  .00005246  00000+0  33473-2 0  9996
2 32356 102.4920 120.9567 0127060  92.2857 269.2848 14.00335438637914
FENGYUN 1C DEB          
1 32357U 99025CZA 25011.92927355  .00006400  00000+0  33610-2 0  9990
2 32357  98.8944  77.5226 0505662 349.8822 191.5465 13.64163881622140
FENGYUN 1C DEB          
1 32360U 99025CZD 25018.05350575  .00007330  00000+0  43431-2 0  9994
2 32360  98.1214 233.7248 0239764 155.5054 205.7727 13.94507901602294
FENGYUN 1C DEB          
1 32361U 99025CZE 25018.07733698  .00012617  00000+0  35858-2 0  9996
2 32361  98.8890  60.7389 0051500 309.3355  79.5353 14.44724061915887
FENGYUN 1C DEB          
1 32362U 99025CZF 25018.36090859  .00009190  00000+0  90749-2 0  9996
2 32362  99.8352 345.4583 0283970  36.9056 325.1261 13.62410621866538
FENGYUN 1C DEB          
1 32363U 99025CZG 25018.50151078  .00023035  00000+0  11797-2 0  9994
2 32363  98.3227 300.0429 0131725 194.1211 165.6320 15.09280388927382
FENGYUN 1C DEB          
1 32366U 99025CZK 25014.26951243  .00003417  00000+0  17254-2 0  9994
2 32366  96.7599 217.4723 0140475 182.6865 177.3574 14.11656426885090
FENGYUN 1C DEB          
1 32409U 99025CZV 25011.12508397  .00012905  00000+0  24486-2 0  9999
2 32409  99.5517 117.5369 0049235  89.8323  30.7746 14.63604768539069
FENGYUN 1C DEB          
1 32411U 99025CZX 25014.10671028  .00001346  00000+0  74430-3 0  9997
2 32411  98.4126 313.4070 0123441 245.7505 113.0729 14.09148337611285
FENGYUN 1C DEB          
1 32414U 99025DAA 25010.47283192  .00004134  00000+0  20964-2 0  9997
2 32414  98.8815  81.9438 0048796 236.4924 123.1582 14.15933867889691
FENGYUN 1C DEB          
1 32419U 99025DAF 25018.18823456  .00002752  00000+0  11163-2 0  9996
2 32419  97.9070 352.2398 0285663 260.6914  96.1855 14.08570756589439
FENGYUN 1C DEB          
1 32422U 99025DAJ 25009.27143548  .00002018  00000+0  99859-3 0  9991
2 32422  97.8065 190.1668 0300178 174.5376 185.9191 13.97308540875872
FENGYUN 1C DEB          
1 32425U 99025DAM 25017.42944700  .00001981  00000+0  78490-3 0  9995
2 32425  96.7053 246.7761 0235062 212.2652 146.3966 14.15645655648745
FENGYUN 1C DEB          
1 32430U 99025DAS 25018.38229091  .00006808  00000+0  48952-2 0  9998
2 32430  98.7112  73.9657 0378614  61.8401 302.0455 13.67882354867106
FENGYUN 1C DEB          
1 32432U 99025DAU 25017.85660792  .00014511  00000+0  32696-2 0  9996
2 32432  98.2083  63.4631 0191212 235.0384 123.2722 14.45757307889771
FENGYUN 1C DEB          
1 32440U 99025DBC 25018.37677355  .00005130  00000+0  49522-2 0  9999
2 32440  99.1549 254.1404 0329959 217.4274 140.3473 13.58704897558222
FENGYUN 1C DEB          
1 32447U 99025DBK 25014.77781336  .00000584  00000+0  44788-3 0  9999
2 32447  98.9542  40.5386 0078918 233.0181 126.3739 13.95773920632475
FENGYUN 1C DEB          
1 32453U 99025DBR 25019.16858143  .00002368  00000+0  15360-2 0  9990
2 32453  99.3858 279.7883 0102340  23.3167 337.2591 14.01148965891958
FENGYUN 1C DEB          
1 32455U 99025DBT 25018.52203287  .00010858  00000+0  70287-2 0  9996
2 32455 101.7240 125.1326 0255246 233.0244 124.7291 13.88296790880700
FENGYUN 1C DEB          
1 32456U 99025DBU 25017.80567834  .00001524  00000+0  21018-2 0  9996
2 32456 103.6750  48.1948 0381641 176.3750 184.0265 13.34702597562268
FENGYUN 1C DEB          
1 32458U 99025DBW 25015.21719649  .00013806  00000+0  31772-2 0  9998
2 32458  99.0462   5.5067 0045164 303.6931  55.9961 14.54880979629559
FENGYUN 1C DEB          
1 32459U 99025DBX 25018.30515003  .00003892  00000+0  92871-3 0  9992
2 32459  98.3219  40.9635 0221209  99.0372 263.5921 14.40378155898180
FENGYUN 1C DEB          
1 32460U 99025DBY 25016.28066938  .00002119  00000+0  15676-2 0  9995
2 32460  97.9941 207.5169 0188076 326.3723  32.5617 13.88169235887027
FENGYUN 1C DEB          
1 32461U 99025DBZ 25014.66369677  .00002121  00000+0  19615-2 0  9992
2 32461  98.3638 272.1689 0235978 290.9791  95.5418 13.71664060627406
FENGYUN 1C DEB          
1 32464U 99025DCC 25017.87040484  .00019243  00000+0  20705-2 0  9998
2 32464  97.3933  65.2938 0137418 250.8941 107.7351 14.81780741930446
FENGYUN 1C DEB          
1 33502U 99025DCF 25018.81224851  .00013086  00000+0  63113-2 0  9998
2 33502  99.0147 315.6076 0089352   9.6718  49.9316 14.16681978823030
FENGYUN 1C DEB          
1 33601U 99025DCJ 25007.94186925  .00002911  00000+0  16108-2 0  9996
2 33601  98.2907 191.6006 0162554  29.1474 331.8649 14.05535474859164
FENGYUN 1C DEB          
1 33603U 99025DCL 25017.94317211  .00004706  00000+0  43345-3 0  9991
2 33603  98.8020 282.7831 0227019  32.5636 328.9343 14.77698840940000
FENGYUN 1C DEB          
1 33605U 99025DCN 25018.78527356  .00001815  00000+0  10989-2 0  9994
2 33605  98.6961  30.0564 0056179 280.7155 253.4692 14.06903081552052
FENGYUN 1C DEB          
1 33612U 99025DCV 25019.18060401  .00005485  00000+0  34247-2 0  9990
2 33612  98.5747   6.6640 0114336 311.0186  48.1139 14.01935625888586
FENGYUN 1C DEB          
1 33613U 99025DCW 25018.91626391  .00008312  00000+0  33070-2 0  9992
2 33613  98.7178  90.0311 0031189 327.3766  32.5487 14.28621555864363
FENGYUN 1C DEB          
1 33618U 99025DDB 25018.96682315  .00007548  00000+0  13454-2 0  9994
2 33618  98.5514  96.4477 0176813  73.5830 288.4721 14.57592674919948
FENGYUN 1C DEB          
1 33619U 99025DDC 25013.92147346  .00003374  00000+0  17436-2 0  9993
2 33619  98.8832  84.5407 0053697 271.4404  88.0618 14.14934833589139
FENGYUN 1C DEB          
1 33621U 99025DDE 25015.93227222  .00002621  00000+0  85790-3 0  9994
2 33621  98.1852 252.2890 0289866 181.5602 178.4700 14.18016156595537
FENGYUN 1C DEB          
1 33625U 99025DDJ 25014.22393971  .00007605  00000+0  11973-2 0  9992
2 33625  98.6118 112.9191 0245686  77.7013 285.1571 14.54531575896343
FENGYUN 1C DEB          
1 33630U 99025DDP 25018.54065937  .00001380  00000+0  65018-3 0  9999
2 33630  98.5936 135.0438 0135573 292.4122  66.2738 14.16775849597620
FENGYUN 1C DEB          
1 33633U 99025DDS 25016.18201552  .00004754  00000+0  23788-2 0  9990
2 33633  99.0628 104.0712 0084667   8.3105  21.5412 14.15339857860282
FENGYUN 1C DEB          
1 33636U 99025DDV 25018.30582983  .00003453  00000+0  13474-2 0  9995
2 33636  98.4912  42.5901 0067885 345.0330  26.2824 14.29005431653747
FENGYUN 1C DEB          
1 33638U 99025DDX 25006.51287256  .00002583  00000+0  24062-2 0  9990
2 33638  98.4744 298.0246 0267527  99.3335 263.8167 13.67883701869339
FENGYUN 1C DEB          
1 33639U 99025DDY 24364.96284894  .00015753  00000+0  55125-2 0  9998
2 33639  98.7261  85.1632 0055295 239.2982 120.2747 14.34343160555866
FENGYUN 1C DEB          
1 33640U 99025DDZ 25019.03601991  .00004098  00000+0  11523-2 0  9991
2 33640  98.8187 309.0919 0095029  60.4357 300.6263 14.43823691877519
FENGYUN 1C DEB          
1 33648U 99025DEH 25017.28108683  .00000387  00000+0  23148-3 0  9998
2 33648  98.7128  25.2972 0069563  31.8675 328.6677 14.11537823597282
FENGYUN 1C DEB          
1 33650U 99025DEK 25018.95594111  .00002827  00000+0  22150-2 0  9993
2 33650  98.9619 196.1333 0153465 248.1059 110.3721 13.87481958847176
FENGYUN 1C DEB          
1 33651U 99025DEL 25009.38326001  .00000606  00000+0  28558-3 0  9994
2 33651  98.7047  61.2155 0116944 307.0755  51.9774 14.19987384887197
FENGYUN 1C DEB          
1 33655U 99025DEQ 25017.01751500  .00023115  00000+0  28007-2 0  9991
2 33655  98.8384  44.4007 0064363 339.8736  19.9937 14.82139949916480
FENGYUN 1C DEB          
1 33658U 99025DET 25018.18674402  .00004468  00000+0  46076-2 0  9994
2 33658  99.5471 178.0230 0289408 296.6613  60.5159 13.59741575536699
FENGYUN 1C DEB          
1 33660U 99025DEV 25017.08279119  .00000898  00000+0  70647-3 0  9996
2 33660  98.6516 310.3200 0112186  73.3496 354.9029 13.91249899864796
FENGYUN 1C DEB          
1 33661U 99025DEW 25018.73558014  .00003995  00000+0  36805-2 0  9992
2 33661  98.4267 305.1110 0235450 314.7864  72.3693 13.71452989599596
FENGYUN 1C DEB          
1 33663U 99025DEY 25018.62993487  .00035028  00000+0  98432-2 0  9995
2 33663  98.8786 350.9322 0107327 284.2920  74.6369 14.42423963594405
FENGYUN 1C DEB          
1 33664U 99025DEZ 25013.73041412  .00001724  00000+0  10038-2 0  9997
2 33664  98.6490 177.2110 0164335 255.3118 102.9784 14.03324630860670
